ONEWEB-0398             
1 50478U 21132K   25265.18056197 -.00000227  00000+0 -67554-3 0  9992
2 50478  87.8787  74.4341 0001805 104.0522 256.0806 13.11414155180486
ONEWEB-0399             
1 50479U 21132L   25265.01441997  .00000305  00000+0  82447-3 0  9994
2 50479  87.8780  74.4880 0002031  78.7015 281.4341 13.11414208180456
ONEWEB-0400             
1 50480U 21132M   25265.08883736  .00000091  00000+0  19759-3 0  9992
2 50480  87.9205  28.6771 0001796 105.5479 254.5852 13.18686318186275
ONEWEB-0401             
1 50481U 21132N   25265.28513251  .00000094  00000+0  20594-3 0  9999
2 50481  87.9207  28.6348 0001560  94.2673 265.8638 13.18687340186304
ONEWEB-0402             
1 50482U 21132P   25265.09709611 -.00000016  00000+0 -72293-4 0  9996
2 50482  87.9206  28.6653 0001173  83.5312 276.5954 13.18686479186306
ONEWEB-0403             
1 50483U 21132Q   25265.27358106  .00000048  00000+0  89233-4 0  9991
2 50483  87.9207  28.6496 0001845  97.9473 262.1869 13.18686117186288
ONEWEB-0404             
1 50484U 21132R   25264.99575900  .00000472  00000+0  12964-2 0  9999
2 50484  87.8785  74.4987 0002012  86.6140 273.5218 13.11418481180543
ONEWEB-0405             
1 50485U 21132S   25265.28843741  .00000094  00000+0  20576-3 0  9993
2 50485  87.9203  28.6318 0001588  90.0218 270.1096 13.18685891186687
ONEWEB-0406             
1 50486U 21132T   25265.27853491  .00000061  00000+0  12143-3 0  9991
2 50486  87.9207  28.6574 0002297 101.4301 258.7089 13.18685486186318
ONEWEB-0407             
1 50487U 21132U   25265.27193658  .00000015  00000+0  65143-5 0  9993
2 50487  87.9205  28.6434 0001545 100.3956 259.7351 13.18686351186259
ONEWEB-0409             
1 50488U 21132V   25264.99406275  .00000384  00000+0  10471-2 0  9994
2 50488  87.8789  74.4589 0001988  93.0824 267.0532 13.11418853180439
ONEWEB-0412             
1 50489U 21132W   25265.26038520  .00000054  00000+0  10532-3 0  9993
2 50489  87.9205  28.6582 0001460  90.4314 269.6985 13.18684809186347
ONEWEB-0413             
1 50490U 21132X   25265.26533921  .00000044  00000+0  78120-4 0  9997
2 50490  87.9208  28.6738 0001360  93.7412 266.3876 13.18685470186280
ONEWEB-0414             
1 50491U 21132Y   25265.25048640  .00000026  00000+0  32627-4 0  9998
2 50491  87.9205  28.6361 0001676  91.8391 268.2933 13.18684593186319
ONEWEB-0417             
1 50492U 21132Z   25265.10697687  .00000040  00000+0  69806-4 0  9999
2 50492  87.9207  28.6978 0001949  97.4400 262.6953 13.18684432186279
ONEWEB-0418             
1 50493U 21132AA  25265.26850432  .00000087  00000+0  18878-3 0  9999
2 50493  87.9208  28.6513 0002232  96.1238 264.0149 13.18685805186354
ONEWEB-0419             
1 50494U 21132AB  25265.28678670  .00000132  00000+0  30199-3 0  9995
2 50494  87.9203  28.6482 0002024 104.5682 255.5675 13.18685856186277
