[{"OBJECT_NAME":"ONEWEB-0398","OBJECT_ID":"2021-132K","EPOCH":"2025-09-22T04:20:00.554208","MEAN_MOTION":13.11414155,"ECCENTRICITY":0.00018052,"INCLINATION":87.8787,"RA_OF_ASC_NODE":74.4341,"ARG_OF_PERICENTER":104.0522,"MEAN_ANOMALY":256.0806,"EPHEMERIS_TYPE":0,"CLASSIFICATION_TYPE":"U","NORAD_CAT_ID":50478,"ELEMENT_SET_NO":999,"REV_AT_EPOCH":18048,"BSTAR":-0.00067553633,"MEAN_MOTION_DOT":-2.27e-6,"MEAN_MOTION_DDOT":0},{"OBJECT_NAME":"ONEWEB-0399","OBJECT_ID":"2021-132L","EPOCH":"2025-09-22T00:20:45.885408","MEAN_MOTION":13.11414208,"ECCENTRICITY":0.00020314,"INCLINATION":87.878,"RA_OF_ASC_NODE":74.488,"ARG_OF_PERICENTER":78.7015,"MEAN_ANOMALY":281.4341,"EPHEMERIS_TYPE":0,"CLASSIFICATION_TYPE":"U","NORAD_CAT_ID":50479,"ELEMENT_SET_NO":999,"REV_AT_EPOCH":18045,"BSTAR":0.00082446856,"MEAN_MOTION_DOT":3.05e-6,"MEAN_MOTION_DDOT":0},{"OBJECT_NAME":"ONEWEB-0400","OBJECT_ID":"2021-132M","EPOCH":"2025-09-22T02:07:55.547904","MEAN_MOTION":13.18686318,"ECCENTRICITY":0.00017963,"INCLINATION":87.9205,"RA_OF_ASC_NODE":28.6771,"ARG_OF_PERICENTER":105.5479,"MEAN_ANOMALY":254.5852,"EPHEMERIS_TYPE":0,"CLASSIFICATION_TYPE":"U","NORAD_CAT_ID":50480,"ELEMENT_SET_NO":999,"REV_AT_EPOCH":18627,"BSTAR":0.0001975932,"MEAN_MOTION_DOT":9.1e-7,"MEAN_MOTION_DDOT":0},{"OBJECT_NAME":"ONEWEB-0401","OBJECT_ID":"2021-132N","EPOCH":"2025-09-22T06:50:35.448864","MEAN_MOTION":13.1868734,"ECCENTRICITY":0.00015609,"INCLINATION":87.9207,"RA_OF_ASC_NODE":28.6348,"ARG_OF_PERICENTER":94.2673,"MEAN_ANOMALY":265.8638,"EPHEMERIS_TYPE":0,"CLASSIFICATION_TYPE":"U","NORAD_CAT_ID":50481,"ELEMENT_SET_NO":999,"REV_AT_EPOCH":18630,"BSTAR":0.00020594011,"MEAN_MOTION_DOT":9.4e-7,"MEAN_MOTION_DDOT":0},{"OBJECT_NAME":"ONEWEB-0402","OBJECT_ID":"2021-132P","EPOCH":"2025-09-22T02:19:49.103904","MEAN_MOTION":13.18686479,"ECCENTRICITY":0.00011731,"INCLINATION":87.9206,"RA_OF_ASC_NODE":28.6653,"ARG_OF_PERICENTER":83.5312,"MEAN_ANOMALY":276.5954,"EPHEMERIS_TYPE":0,"CLASSIFICATION_TYPE":"U","NORAD_CAT_ID":50482,"ELEMENT_SET_NO":999,"REV_AT_EPOCH":18630,"BSTAR":-7.2292698e-5,"MEAN_MOTION_DOT":-1.6e-7,"MEAN_MOTION_DDOT":0},{"OBJECT_NAME":"ONEWEB-0403","OBJECT_ID":"2021-132Q","EPOCH":"2025-09-22T06:33:57.403584","MEAN_MOTION":13.18686117,"ECCENTRICITY":0.00018451,"INCLINATION":87.9207,"RA_OF_ASC_NODE":28.6496,"ARG_OF_PERICENTER":97.9473,"MEAN_ANOMALY":262.1869,"EPHEMERIS_TYPE":0,"CLASSIFICATION_TYPE":"U","NORAD_CAT_ID":50483,"ELEMENT_SET_NO":999,"REV_AT_EPOCH":18628,"BSTAR":8.9233171e-5,"MEAN_MOTION_DOT":4.8e-7,"MEAN_MOTION_DDOT":0},{"OBJECT_NAME":"ONEWEB-0404","OBJECT_ID":"2021-132R","EPOCH":"2025-09-21T23:53:53.577600","MEAN_MOTION":13.11418481,"ECCENTRICITY":0.00020126,"INCLINATION":87.8785,"RA_OF_ASC_NODE":74.4987,"ARG_OF_PERICENTER":86.614,"MEAN_ANOMALY":273.5218,"EPHEMERIS_TYPE":0,"CLASSIFICATION_TYPE":"U","NORAD_CAT_ID":50484,"ELEMENT_SET_NO":999,"REV_AT_EPOCH":18054,"BSTAR":0.0012963664,"MEAN_MOTION_DOT":4.72e-6,"MEAN_MOTION_DDOT":0},{"OBJECT_NAME":"ONEWEB-0405","OBJECT_ID":"2021-132S","EPOCH":"2025-09-22T06:55:20.992224","MEAN_MOTION":13.18685891,"ECCENTRICITY":0.00015886,"INCLINATION":87.9203,"RA_OF_ASC_NODE":28.6318,"ARG_OF_PERICENTER":90.0218,"MEAN_ANOMALY":270.1096,"EPHEMERIS_TYPE":0,"CLASSIFICATION_TYPE":"U","NORAD_CAT_ID":50485,"ELEMENT_SET_NO":999,"REV_AT_EPOCH":18668,"BSTAR":0.00020575883,"MEAN_MOTION_DOT":9.4e-7,"MEAN_MOTION_DDOT":0},{"OBJECT_NAME":"ONEWEB-0406","OBJECT_ID":"2021-132T","EPOCH":"2025-09-22T06:41:05.416224","MEAN_MOTION":13.18685486,"ECCENTRICITY":0.0002297,"INCLINATION":87.9207,"RA_OF_ASC_NODE":28.6574,"ARG_OF_PERICENTER":101.4301,"MEAN_ANOMALY":258.7089,"EPHEMERIS_TYPE":0,"CLASSIFICATION_TYPE":"U","NORAD_CAT_ID":50486,"ELEMENT_SET_NO":999,"REV_AT_EPOCH":18631,"BSTAR":0.00012142815,"MEAN_MOTION_DOT":6.1e-7,"MEAN_MOTION_DDOT":0},{"OBJECT_NAME":"ONEWEB-0407","OBJECT_ID":"2021-132U","EPOCH":"2025-09-22T06:31:35.320512","MEAN_MOTION":13.18686351,"ECCENTRICITY":0.00015458,"INCLINATION":87.9205,"RA_OF_ASC_NODE":28.6434,"ARG_OF_PERICENTER":100.3956,"MEAN_ANOMALY":259.7351,"EPHEMERIS_TYPE":0,"CLASSIFICATION_TYPE":"U","NORAD_CAT_ID":50487,"ELEMENT_SET_NO":999,"REV_AT_EPOCH":18625,"BSTAR":6.51431e-6,"MEAN_MOTION_DOT":1.5e-7,"MEAN_MOTION_DDOT":0},{"OBJECT_NAME":"ONEWEB-0409","OBJECT_ID":"2021-132V","EPOCH":"2025-09-21T23:51:27.021600","MEAN_MOTION":13.11418853,"ECCENTRICITY":0.00019882,"INCLINATION":87.8789,"RA_OF_ASC_NODE":74.4589,"ARG_OF_PERICENTER":93.0824,"MEAN_ANOMALY":267.0532,"EPHEMERIS_TYPE":0,"CLASSIFICATION_TYPE":"U","NORAD_CAT_ID":50488,"ELEMENT_SET_NO":999,"REV_AT_EPOCH":18043,"BSTAR":0.0010470976,"MEAN_MOTION_DOT":3.84e-6,"MEAN_MOTION_DDOT":0},{"OBJECT_NAME":"ONEWEB-0412","OBJECT_ID":"2021-132W","EPOCH":"2025-09-22T06:14:57.281280","MEAN_MOTION":13.18684809,"ECCENTRICITY":0.00014602,"INCLINATION":87.9205,"RA_OF_ASC_NODE":28.6582,"ARG_OF_PERICENTER":90.4314,"MEAN_ANOMALY":269.6985,"EPHEMERIS_TYPE":0,"CLASSIFICATION_TYPE":"U","NORAD_CAT_ID":50489,"ELEMENT_SET_NO":999,"REV_AT_EPOCH":18634,"BSTAR":0.00010532454,"MEAN_MOTION_DOT":5.4e-7,"MEAN_MOTION_DDOT":0},{"OBJECT_NAME":"ONEWEB-0413","OBJECT_ID":"2021-132X","EPOCH":"2025-09-22T06:22:05.307744","MEAN_MOTION":13.1868547,"ECCENTRICITY":0.00013604,"INCLINATION":87.9208,"RA_OF_ASC_NODE":28.6738,"ARG_OF_PERICENTER":93.7412,"MEAN_ANOMALY":266.3876,"EPHEMERIS_TYPE":0,"CLASSIFICATION_TYPE":"U","NORAD_CAT_ID":50490,"ELEMENT_SET_NO":999,"REV_AT_EPOCH":18628,"BSTAR":7.8119605e-5,"MEAN_MOTION_DOT":4.4e-7,"MEAN_MOTION_DDOT":0},{"OBJECT_NAME":"ONEWEB-0414","OBJECT_ID":"2021-132Y","EPOCH":"2025-09-22T06:00:42.024960","MEAN_MOTION":13.18684593,"ECCENTRICITY":0.00016761,"INCLINATION":87.9205,"RA_OF_ASC_NODE":28.6361,"ARG_OF_PERICENTER":91.8391,"MEAN_ANOMALY":268.2933,"EPHEMERIS_TYPE":0,"CLASSIFICATION_TYPE":"U","NORAD_CAT_ID":50491,"ELEMENT_SET_NO":999,"REV_AT_EPOCH":18631,"BSTAR":3.2627315e-5,"MEAN_MOTION_DOT":2.6e-7,"MEAN_MOTION_DDOT":0},{"OBJECT_NAME":"ONEWEB-0417","OBJECT_ID":"2021-132Z","EPOCH":"2025-09-22T02:34:02.801568","MEAN_MOTION":13.18684432,"ECCENTRICITY":0.00019498,"INCLINATION":87.9207,"RA_OF_ASC_NODE":28.6978,"ARG_OF_PERICENTER":97.44,"MEAN_ANOMALY":262.6953,"EPHEMERIS_TYPE":0,"CLASSIFICATION_TYPE":"U","NORAD_CAT_ID":50492,"ELEMENT_SET_NO":999,"REV_AT_EPOCH":18627,"BSTAR":6.9806104e-5,"MEAN_MOTION_DOT":4.0e-7,"MEAN_MOTION_DDOT":0},{"OBJECT_NAME":"ONEWEB-0418","OBJECT_ID":"2021-132AA","EPOCH":"2025-09-22T06:26:38.773248","MEAN_MOTION":13.18685805,"ECCENTRICITY":0.00022321,"INCLINATION":87.9208,"RA_OF_ASC_NODE":28.6513,"ARG_OF_PERICENTER":96.1238,"MEAN_ANOMALY":264.0149,"EPHEMERIS_TYPE":0,"CLASSIFICATION_TYPE":"U","NORAD_CAT_ID":50493,"ELEMENT_SET_NO":999,"REV_AT_EPOCH":18635,"BSTAR":0.00018877967,"MEAN_MOTION_DOT":8.7e-7,"MEAN_MOTION_DDOT":0},{"OBJECT_NAME":"ONEWEB-0419","OBJECT_ID":"2021-132AB","EPOCH":"2025-09-22T06:52:58.370880","MEAN_MOTION":13.18685856,"ECCENTRICITY":0.00020242,"INCLINATION":87.9203,"RA_OF_ASC_NODE":28.6482,"ARG_OF_PERICENTER":104.5682,"MEAN_ANOMALY":255.5675,"EPHEMERIS_TYPE":0,"CLASSIFICATION_TYPE":"U","NORAD_CAT_ID":50494,"ELEMENT_SET_NO":999,"REV_AT_EPOCH":18627,"BSTAR":0.00030199238,"MEAN_MOTION_DOT":1.32e-6,"MEAN_MOTION_DDOT":0}]
